{"type": "FeatureCollection", "features": [ {"type": "Feature", "properties": {"norad_id": 34327, "name": "COSMOS 2251 DEB", "group": "cosmos-2251-debris", "lat": -0.26093388313678406, "lon": -2.3495103901289753, "alt_km": 626.159120984852, "timestamp": "2025-12-09T21:34:11.803536+00:00", "meta": {"OBJECT_NAME": "COSMOS 2251 DEB", "OBJECT_ID": "1993-036NZ", "EPOCH": "2025-12-09T00:29:52.198656", "MEAN_MOTION": 14.89049096, "ECCENTRICITY": 0.00325658, "INCLINATION": 73.9933, "RA_OF_ASC_NODE": 179.3336, "ARG_OF_PERICENTER": 356.457, "MEAN_ANOMALY": 159.0682, "EPHEMERIS_TYPE": 0, "CLASSIFICATION_TYPE": "U", "NORAD_CAT_ID": 34327, "ELEMENT_SET_NO": 999, "REV_AT_EPOCH": 89452, "BSTAR": 0.0012954373, "MEAN_MOTION_DOT": 0.00012309, "MEAN_MOTION_DDOT": 0}, "tle": {"line1": "1 34327U 93036NZ  25343.02074304  .00012309  00000+0  12954-2 0  9994", "line2": "2 34327  73.9933 179.3336 0032565 356.4570 159.0682 14.89049096894527"}}, "geometry": {"type": "Point", "coordinates": [-2.3495103901289753, -0.26093388313678406]}}, {"type": "Feature", "properties": {"norad_id": 34340, "name": "COSMOS 2251 DEB", "group": "cosmos-2251-debris", "lat": 11.685472103341919, "lon": -43.88382983249018, "alt_km": 826.9478235959532, "timestamp": "2025-12-09T21:34:11.803547+00:00", "meta": {"OBJECT_NAME": "COSMOS 2251 DEB", "OBJECT_ID": "1993-036PN", "EPOCH": "2025-12-09T08:09:37.703808", "MEAN_MOTION": 13.7955177, "ECCENTRICITY": 0.0282264, "INCLINATION": 74.0796, "RA_OF_ASC_NODE": 313.6647, "ARG_OF_PERICENTER": 62.2755, "MEAN_ANOMALY": 58.5983, "EPHEMERIS_TYPE": 0, "CLASSIFICATION_TYPE": "U", "NORAD_CAT_ID": 34340, "ELEMENT_SET_NO": 999, "REV_AT_EPOCH": 84221, "BSTAR": 0.0018418, "MEAN_MOTION_DOT": 2.539e-05, "MEAN_MOTION_DDOT": 0}, "tle": {"line1": "1 34340U 93036PN  25343.34001972  .00002539  00000+0  18418-2 0  9990", "line2": "2 34340  74.0796 313.6647 0282264  62.2755  58.5983 13.79551770842210"}}, "geometry": {"type": "Point", "coordinates": [-43.88382983249018, 11.685472103341919]}}, {"type": "Feature", "properties": {"norad_id": 34343, "name": "COSMOS 2251 DEB", "group": "cosmos-2251-debris", "lat": -64.21695354587075, "lon": -48.551457249657794, "alt_km": 678.3989150117413, "timestamp": "2025-12-09T21:34:11.803557+00:00", "meta": {"OBJECT_NAME": "COSMOS 2251 DEB", "OBJECT_ID": "1993-036PR", "EPOCH": "2025-12-09T13:57:59.973696", "MEAN_MOTION": 14.69349392, "ECCENTRICITY": 0.00230988, "INCLINATION": 74.0201, "RA_OF_ASC_NODE": 95.6767, "ARG_OF_PERICENTER": 11.4532, "MEAN_ANOMALY": 3.1376, "EPHEMERIS_TYPE": 0, "CLASSIFICATION_TYPE": "U", "NORAD_CAT_ID": 34343, "ELEMENT_SET_NO": 999, "REV_AT_EPOCH": 88684, "BSTAR": 0.0022500774, "MEAN_MOTION_DOT": 0.00013346, "MEAN_MOTION_DDOT": 0}, "tle": {"line1": "1 34343U 93036PR  25343.58194414  .00013346  00000+0  22501-2 0  9999", "line2": "2 34343  74.0201  95.6767 0023098  11.4532   3.1376 14.69349392886845"}}, "geometry": {"type": "Point", "coordinates": [-48.551457249657794, -64.21695354587075]}}, {"type": "Feature", "properties": {"norad_id": 34344, "name": "COSMOS 2251 DEB", "group": "cosmos-2251-debris", "lat": 8.537939905558646, "lon": -67.05283043527182, "alt_km": 908.9741399957156, "timestamp": "2025-12-09T21:34:11.803567+00:00", "meta": {"OBJECT_NAME": "COSMOS 2251 DEB", "OBJECT_ID": "1993-036PS", "EPOCH": "2025-12-09T10:54:20.376864", "MEAN_MOTION": 14.16371082, "ECCENTRICITY": 0.01557105, "INCLINATION": 73.9799, "RA_OF_ASC_NODE": 116.212, "ARG_OF_PERICENTER": 301.0761, "MEAN_ANOMALY": 126.5201, "EPHEMERIS_TYPE": 0, "CLASSIFICATION_TYPE": "U", "NORAD_CAT_ID": 34344, "ELEMENT_SET_NO": 999, "REV_AT_EPOCH": 86050, "BSTAR": 0.0024100017, "MEAN_MOTION_DOT": 5.364e-05, "MEAN_MOTION_DDOT": 0}, "tle": {"line1": "1 34344U 93036PS  25343.45440251  .00005364  00000+0  24100-2 0  9997", "line2": "2 34344  73.9799 116.2120 0155710 301.0761 126.5201 14.16371082860503"}}, "geometry": {"type": "Point", "coordinates": [-67.05283043527182, 8.537939905558646]}}, {"type": "Feature", "properties": {"norad_id": 34346, "name": "COSMOS 2251 DEB", "group": "cosmos-2251-debris", "lat": 73.53751391335034, "lon": 60.943543953843744, "alt_km": 776.1988651747452, "timestamp": "2025-12-09T21:34:11.803578+00:00", "meta": {"OBJECT_NAME": "COSMOS 2251 DEB", "OBJECT_ID": "1993-036PU", "EPOCH": "2025-12-09T09:42:38.152800", "MEAN_MOTION": 13.9967692, "ECCENTRICITY": 0.02063467, "INCLINATION": 73.9954, "RA_OF_ASC_NODE": 318.0332, "ARG_OF_PERICENTER": 137.7544, "MEAN_ANOMALY": 348.7735, "EPHEMERIS_TYPE": 0, "CLASSIFICATION_TYPE": "U", "NORAD_CAT_ID": 34346, "ELEMENT_SET_NO": 999, "REV_AT_EPOCH": 85363, "BSTAR": 0.0013127855, "MEAN_MOTION_DOT": 2.284e-05, "MEAN_MOTION_DDOT": 0}, "tle": {"line1": "1 34346U 93036PU  25343.40460825  .00002284  00000+0  13128-2 0  9999", "line2": "2 34346  73.9954 318.0332 0206346 137.7544 348.7735 13.99676920853635"}}, "geometry": {"type": "Point", "coordinates": [60.943543953843744, 73.53751391335034]}}, {"type": "Feature", "properties": {"norad_id": 34383, "name": "COSMOS 2251 DEB", "group": "cosmos-2251-debris", "lat": -70.22836599040455, "lon": 176.4089961594143, "alt_km": 548.7423637972652, "timestamp": "2025-12-09T21:34:11.803588+00:00", "meta": {"OBJECT_NAME": "COSMOS 2251 DEB", "OBJECT_ID": "1993-036PY", "EPOCH": "2025-12-09T14:34:45.280128", "MEAN_MOTION": 15.08535731, "ECCENTRICITY": 0.00024564, "INCLINATION": 74.023, "RA_OF_ASC_NODE": 304.1601, "ARG_OF_PERICENTER": 36.8351, "MEAN_ANOMALY": 80.1685, "EPHEMERIS_TYPE": 0, "CLASSIFICATION_TYPE": "U", "NORAD_CAT_ID": 34383, "ELEMENT_SET_NO": 999, "REV_AT_EPOCH": 89066, "BSTAR": 0.0044404619, "MEAN_MOTION_DOT": 0.00069993, "MEAN_MOTION_DDOT": 0}, "tle": {"line1": "1 34383U 93036PY  25343.60746852  .00069993  00000+0  44405-2 0  9991", "line2": "2 34383  74.0230 304.1601 0002456  36.8351  80.1685 15.08535731890662"}}, "geometry": {"type": "Point", "coordinates": [176.4089961594143, -70.22836599040455]}}, {"type": "Feature", "properties": {"norad_id": 34387, "name": "COSMOS 2251 DEB", "group": "cosmos-2251-debris", "lat": 39.52347915643169, "lon": 23.518741061557993, "alt_km": 770.0767775604136, "timestamp": "2025-12-09T21:34:11.803662+00:00", "meta": {"OBJECT_NAME": "COSMOS 2251 DEB", "OBJECT_ID": "1993-036QC", "EPOCH": "2025-12-09T03:21:41.241024", "MEAN_MOTION": 14.43807825, "ECCENTRICITY": 0.00387286, "INCLINATION": 74.0395, "RA_OF_ASC_NODE": 218.5855, "ARG_OF_PERICENTER": 316.1348, "MEAN_ANOMALY": 200.5275, "EPHEMERIS_TYPE": 0, "CLASSIFICATION_TYPE": "U", "NORAD_CAT_ID": 34387, "ELEMENT_SET_NO": 999, "REV_AT_EPOCH": 88129, "BSTAR": 0.00043015077, "MEAN_MOTION_DOT": 1.451e-05, "MEAN_MOTION_DDOT": 0}, "tle": {"line1": "1 34387U 93036QC  25343.14006066  .00001451  00000+0  43015-3 0  9992", "line2": "2 34387  74.0395 218.5855 0038728 316.1348 200.5275 14.43807825881294"}}, "geometry": {"type": "Point", "coordinates": [23.518741061557993, 39.52347915643169]}}, {"type": "Feature", "properties": {"norad_id": 34388, "name": "COSMOS 2251 DEB", "group": "cosmos-2251-debris", "lat": 60.20259444397257, "lon": -101.58106046388284, "alt_km": 730.1182859066339, "timestamp": "2025-12-09T21:34:11.803675+00:00", "meta": {"OBJECT_NAME": "COSMOS 2251 DEB", "OBJECT_ID": "1993-036QD", "EPOCH": "2025-12-09T10:29:34.472256", "MEAN_MOTION": 14.49339397, "ECCENTRICITY": 0.00141644, "INCLINATION": 74.0389, "RA_OF_ASC_NODE": 229.2986, "ARG_OF_PERICENTER": 277.6803, "MEAN_ANOMALY": 259.604, "EPHEMERIS_TYPE": 0, "CLASSIFICATION_TYPE": "U", "NORAD_CAT_ID": 34388, "ELEMENT_SET_NO": 999, "REV_AT_EPOCH": 88107, "BSTAR": 0.0011136723, "MEAN_MOTION_DOT": 4.234e-05, "MEAN_MOTION_DDOT": 0}, "tle": {"line1": "1 34388U 93036QD  25343.43720454  .00004234  00000+0  11137-2 0  9990", "line2": "2 34388  74.0389 229.2986 0014164 277.6803 259.6040 14.49339397881078"}}, "geometry": {"type": "Point", "coordinates": [-101.58106046388284, 60.20259444397257]}}, {"type": "Feature", "properties": {"norad_id": 34389, "name": "COSMOS 2251 DEB", "group": "cosmos-2251-debris", "lat": 12.39072219215966, "lon": 71.47291443790913, "alt_km": 773.5266673868373, "timestamp": "2025-12-09T21:34:11.803685+00:00", "meta": {"OBJECT_NAME": "COSMOS 2251 DEB", "OBJECT_ID": "1993-036QE", "EPOCH": "2025-12-09T04:40:56.277984", "MEAN_MOTION": 14.41518195, "ECCENTRICITY": 0.00287404, "INCLINATION": 74.0195, "RA_OF_ASC_NODE": 256.3866, "ARG_OF_PERICENTER": 9.087, "MEAN_ANOMALY": 107.6825, "EPHEMERIS_TYPE": 0, "CLASSIFICATION_TYPE": "U", "NORAD_CAT_ID": 34389, "ELEMENT_SET_NO": 999, "REV_AT_EPOCH": 87961, "BSTAR": 0.00056729856, "MEAN_MOTION_DOT": 1.826e-05, "MEAN_MOTION_DDOT": 0}, "tle": {"line1": "1 34389U 93036QE  25343.19509581  .00001826  00000+0  56730-3 0  9993", "line2": "2 34389  74.0195 256.3866 0028740   9.0870 107.6825 14.41518195879615"}}, "geometry": {"type": "Point", "coordinates": [71.47291443790913, 12.39072219215966]}}, {"type": "Feature", "properties": {"norad_id": 34396, "name": "COSMOS 2251 DEB", "group": "cosmos-2251-debris", "lat": 60.05774113036174, "lon": -80.23306152075217, "alt_km": 638.6268378592767, "timestamp": "2025-12-09T21:34:11.803696+00:00", "meta": {"OBJECT_NAME": "COSMOS 2251 DEB", "OBJECT_ID": "1993-036QM", "EPOCH": "2025-12-09T11:31:49.359360", "MEAN_MOTION": 14.74265988, "ECCENTRICITY": 0.00065799, "INCLINATION": 74.0291, "RA_OF_ASC_NODE": 130.398, "ARG_OF_PERICENTER": 171.9841, "MEAN_ANOMALY": 244.4554, "EPHEMERIS_TYPE": 0, "CLASSIFICATION_TYPE": "U", "NORAD_CAT_ID": 34396, "ELEMENT_SET_NO": 999, "REV_AT_EPOCH": 88298, "BSTAR": 0.0032934297, "MEAN_MOTION_DOT": 0.00021831, "MEAN_MOTION_DDOT": 0}, "tle": {"line1": "1 34396U 93036QM  25343.48043240  .00021831  00000+0  32934-2 0  9995", "line2": "2 34396  74.0291 130.3980 0006579 171.9841 244.4554 14.74265988882989"}}, "geometry": {"type": "Point", "coordinates": [-80.23306152075217, 60.05774113036174]}}]}